STARLINK-36744          
1 67987U 26039B   26081.83335648 -.01928652  00000+0 -36989-1 0  9994
2 67987  42.9994 335.5740 0001919 267.6921  88.6113 15.50314999  4991
STARLINK-36734          
1 67988U 26039C   26081.40417293  .00129280  00000+0  21734-2 0  9995
2 67988  42.9978 339.2604 0002055 291.5146  68.5495 15.50576115  3620
STARLINK-36957          
1 67989U 26039D   26081.83335648 -.00020423  00000+0 -34294-3 0  9993
2 67989  42.9996 335.6269 0001699 251.2004  82.8338 15.50600045  4993
STARLINK-36951          
1 67990U 26039E   26081.83335648 -.00072946  00000+0 -12474-2 0  9997
2 67990  42.9995 335.8837 0001381 266.7821 323.0591 15.50619211  4999
STARLINK-36941          
1 67991U 26039F   26081.98329783  .00088021  00000+0  14872-2 0  9990
2 67991  42.9998 335.8638 0001752 269.8781  90.1878 15.50620076  3713
STARLINK-36950          
1 67992U 26039G   26081.83335648 -.00133324  00000+0 -23007-2 0  9991
2 67992  42.9998 336.3646 0001643 260.2833 134.5879 15.50637667  4990
STARLINK-36975          
1 67993U 26039H   26081.83335648  .00085753  00000+0  14533-2 0  9996
2 67993  42.9996 336.2680 0001489 270.6308 163.4402 15.50544468  4995
STARLINK-36993          
1 67994U 26039J   26081.83335648 -.00107566  00000+0 -18508-2 0  9992
2 67994  42.9996 335.5586 0001564 257.0908 103.7842 15.50611956  4994
STARLINK-36968          
1 67995U 26039K   26081.00002315  .00070059  00000+0  11933-2 0  9993
2 67995  42.9997 341.3417 0001392 263.3408 112.4555 15.50485382  4853
STARLINK-36979          
1 67996U 26039L   26081.83335648  .00045675  00000+0  78140-3 0  9993
2 67996  42.9997 335.4426 0001493 253.3254 154.7390 15.50522640  4998
STARLINK-36994          
1 67997U 26039M   26081.83335648 -.00132380  00000+0 -22842-2 0  9993
2 67997  42.9998 335.8051 0001655 264.3374 356.3253 15.50637354  4990
STARLINK-36988          
1 67998U 26039N   26081.83335648 -.00131202  00000+0 -22633-2 0  9994
2 67998  42.9998 335.7468 0001307 261.2636  23.1334 15.50640381  4996
