CCSDS_OMM_VERS = 2.0
CREATION_DATE  = 
ORIGINATOR     = 

OBJECT_NAME    = STARLINK-36744
OBJECT_ID      = 2026-039B
CENTER_NAME    = EARTH
REF_FRAME      = TEME
TIME_SYSTEM    = UTC
MEAN_ELEMENT_THEORY = SGP/SGP4

EPOCH          = 2026-03-22T20:00:01.999872
MEAN_MOTION    = 15.50314999
ECCENTRICITY   = .00019197
INCLINATION    = 42.9994
RA_OF_ASC_NODE = 335.5740
ARG_OF_PERICENTER = 267.6921
MEAN_ANOMALY   = 88.6113

EPHEMERIS_TYPE = 0
CLASSIFICATION_TYPE = U
NORAD_CAT_ID   = 67987
ELEMENT_SET_NO = 999
REV_AT_EPOCH   = 499
BSTAR          = -.36989133E-1
MEAN_MOTION_DOT = -.1928652E-1
MEAN_MOTION_DDOT = 0

CCSDS_OMM_VERS = 2.0
CREATION_DATE  = 
ORIGINATOR     = 

OBJECT_NAME    = STARLINK-36734
OBJECT_ID      = 2026-039C
CENTER_NAME    = EARTH
REF_FRAME      = TEME
TIME_SYSTEM    = UTC
MEAN_ELEMENT_THEORY = SGP/SGP4

EPOCH          = 2026-03-22T09:42:00.541152
MEAN_MOTION    = 15.50576115
ECCENTRICITY   = .00020558
INCLINATION    = 42.9978
RA_OF_ASC_NODE = 339.2604
ARG_OF_PERICENTER = 291.5146
MEAN_ANOMALY   = 68.5495

EPHEMERIS_TYPE = 0
CLASSIFICATION_TYPE = U
NORAD_CAT_ID   = 67988
ELEMENT_SET_NO = 999
REV_AT_EPOCH   = 362
BSTAR          = .21734428E-2
MEAN_MOTION_DOT = .12928E-2
MEAN_MOTION_DDOT = 0

CCSDS_OMM_VERS = 2.0
CREATION_DATE  = 
ORIGINATOR     = 

OBJECT_NAME    = STARLINK-36957
OBJECT_ID      = 2026-039D
CENTER_NAME    = EARTH
REF_FRAME      = TEME
TIME_SYSTEM    = UTC
MEAN_ELEMENT_THEORY = SGP/SGP4

EPOCH          = 2026-03-22T20:00:01.999872
MEAN_MOTION    = 15.50600045
ECCENTRICITY   = .00016993
INCLINATION    = 42.9996
RA_OF_ASC_NODE = 335.6269
ARG_OF_PERICENTER = 251.2004
MEAN_ANOMALY   = 82.8338

EPHEMERIS_TYPE = 0
CLASSIFICATION_TYPE = U
NORAD_CAT_ID   = 67989
ELEMENT_SET_NO = 999
REV_AT_EPOCH   = 499
BSTAR          = -.34294413E-3
MEAN_MOTION_DOT = -.20423E-3
MEAN_MOTION_DDOT = 0

CCSDS_OMM_VERS = 2.0
CREATION_DATE  = 
ORIGINATOR     = 

OBJECT_NAME    = STARLINK-36951
OBJECT_ID      = 2026-039E
CENTER_NAME    = EARTH
REF_FRAME      = TEME
TIME_SYSTEM    = UTC
MEAN_ELEMENT_THEORY = SGP/SGP4

EPOCH          = 2026-03-22T20:00:01.999872
MEAN_MOTION    = 15.50619211
ECCENTRICITY   = .00013819
INCLINATION    = 42.9995
RA_OF_ASC_NODE = 335.8837
ARG_OF_PERICENTER = 266.7821
MEAN_ANOMALY   = 323.0591

EPHEMERIS_TYPE = 0
CLASSIFICATION_TYPE = U
NORAD_CAT_ID   = 67990
ELEMENT_SET_NO = 999
REV_AT_EPOCH   = 499
BSTAR          = -.12473932E-2
MEAN_MOTION_DOT = -.72946E-3
MEAN_MOTION_DDOT = 0

CCSDS_OMM_VERS = 2.0
CREATION_DATE  = 
ORIGINATOR     = 

OBJECT_NAME    = STARLINK-36941
OBJECT_ID      = 2026-039F
CENTER_NAME    = EARTH
REF_FRAME      = TEME
TIME_SYSTEM    = UTC
MEAN_ELEMENT_THEORY = SGP/SGP4

EPOCH          = 2026-03-22T23:35:56.932512
MEAN_MOTION    = 15.50620076
ECCENTRICITY   = .00017525
INCLINATION    = 42.9998
RA_OF_ASC_NODE = 335.8638
ARG_OF_PERICENTER = 269.8781
MEAN_ANOMALY   = 90.1878

EPHEMERIS_TYPE = 0
CLASSIFICATION_TYPE = U
NORAD_CAT_ID   = 67991
ELEMENT_SET_NO = 999
REV_AT_EPOCH   = 371
BSTAR          = .14871922E-2
MEAN_MOTION_DOT = .88021E-3
MEAN_MOTION_DDOT = 0

CCSDS_OMM_VERS = 2.0
CREATION_DATE  = 
ORIGINATOR     = 

OBJECT_NAME    = STARLINK-36950
OBJECT_ID      = 2026-039G
CENTER_NAME    = EARTH
REF_FRAME      = TEME
TIME_SYSTEM    = UTC
MEAN_ELEMENT_THEORY = SGP/SGP4

EPOCH          = 2026-03-22T20:00:01.999872
MEAN_MOTION    = 15.50637667
ECCENTRICITY   = .00016434
INCLINATION    = 42.9998
RA_OF_ASC_NODE = 336.3646
ARG_OF_PERICENTER = 260.2833
MEAN_ANOMALY   = 134.5879

EPHEMERIS_TYPE = 0
CLASSIFICATION_TYPE = U
NORAD_CAT_ID   = 67992
ELEMENT_SET_NO = 999
REV_AT_EPOCH   = 499
BSTAR          = -.23007461E-2
MEAN_MOTION_DOT = -.133324E-2
MEAN_MOTION_DDOT = 0

CCSDS_OMM_VERS = 2.0
CREATION_DATE  = 
ORIGINATOR     = 

OBJECT_NAME    = STARLINK-36975
OBJECT_ID      = 2026-039H
CENTER_NAME    = EARTH
REF_FRAME      = TEME
TIME_SYSTEM    = UTC
MEAN_ELEMENT_THEORY = SGP/SGP4

EPOCH          = 2026-03-22T20:00:01.999872
MEAN_MOTION    = 15.50544468
ECCENTRICITY   = .00014894
INCLINATION    = 42.9996
RA_OF_ASC_NODE = 336.2680
ARG_OF_PERICENTER = 270.6308
MEAN_ANOMALY   = 163.4402

EPHEMERIS_TYPE = 0
CLASSIFICATION_TYPE = U
NORAD_CAT_ID   = 67993
ELEMENT_SET_NO = 999
REV_AT_EPOCH   = 499
BSTAR          = .14533403E-2
MEAN_MOTION_DOT = .85753E-3
MEAN_MOTION_DDOT = 0

CCSDS_OMM_VERS = 2.0
CREATION_DATE  = 
ORIGINATOR     = 

OBJECT_NAME    = STARLINK-36993
OBJECT_ID      = 2026-039J
CENTER_NAME    = EARTH
REF_FRAME      = TEME
TIME_SYSTEM    = UTC
MEAN_ELEMENT_THEORY = SGP/SGP4

EPOCH          = 2026-03-22T20:00:01.999872
MEAN_MOTION    = 15.50611956
ECCENTRICITY   = .00015645
INCLINATION    = 42.9996
RA_OF_ASC_NODE = 335.5586
ARG_OF_PERICENTER = 257.0908
MEAN_ANOMALY   = 103.7842

EPHEMERIS_TYPE = 0
CLASSIFICATION_TYPE = U
NORAD_CAT_ID   = 67994
ELEMENT_SET_NO = 999
REV_AT_EPOCH   = 499
BSTAR          = -.18507659E-2
MEAN_MOTION_DOT = -.107566E-2
MEAN_MOTION_DDOT = 0

CCSDS_OMM_VERS = 2.0
CREATION_DATE  = 
ORIGINATOR     = 

OBJECT_NAME    = STARLINK-36968
OBJECT_ID      = 2026-039K
CENTER_NAME    = EARTH
REF_FRAME      = TEME
TIME_SYSTEM    = UTC
MEAN_ELEMENT_THEORY = SGP/SGP4

EPOCH          = 2026-03-22T00:00:02.000160
MEAN_MOTION    = 15.50485382
ECCENTRICITY   = .00013927
INCLINATION    = 42.9997
RA_OF_ASC_NODE = 341.3417
ARG_OF_PERICENTER = 263.3408
MEAN_ANOMALY   = 112.4555

EPHEMERIS_TYPE = 0
CLASSIFICATION_TYPE = U
NORAD_CAT_ID   = 67995
ELEMENT_SET_NO = 999
REV_AT_EPOCH   = 485
BSTAR          = .11933122E-2
MEAN_MOTION_DOT = .70059E-3
MEAN_MOTION_DDOT = 0

CCSDS_OMM_VERS = 2.0
CREATION_DATE  = 
ORIGINATOR     = 

OBJECT_NAME    = STARLINK-36979
OBJECT_ID      = 2026-039L
CENTER_NAME    = EARTH
REF_FRAME      = TEME
TIME_SYSTEM    = UTC
MEAN_ELEMENT_THEORY = SGP/SGP4

EPOCH          = 2026-03-22T20:00:01.999872
MEAN_MOTION    = 15.50522640
ECCENTRICITY   = .00014931
INCLINATION    = 42.9997
RA_OF_ASC_NODE = 335.4426
ARG_OF_PERICENTER = 253.3254
MEAN_ANOMALY   = 154.7390

EPHEMERIS_TYPE = 0
CLASSIFICATION_TYPE = U
NORAD_CAT_ID   = 67996
ELEMENT_SET_NO = 999
REV_AT_EPOCH   = 499
BSTAR          = .78139771E-3
MEAN_MOTION_DOT = .45675E-3
MEAN_MOTION_DDOT = 0

CCSDS_OMM_VERS = 2.0
CREATION_DATE  = 
ORIGINATOR     = 

OBJECT_NAME    = STARLINK-36994
OBJECT_ID      = 2026-039M
CENTER_NAME    = EARTH
REF_FRAME      = TEME
TIME_SYSTEM    = UTC
MEAN_ELEMENT_THEORY = SGP/SGP4

EPOCH          = 2026-03-22T20:00:01.999872
MEAN_MOTION    = 15.50637354
ECCENTRICITY   = .00016551
INCLINATION    = 42.9998
RA_OF_ASC_NODE = 335.8051
ARG_OF_PERICENTER = 264.3374
MEAN_ANOMALY   = 356.3253

EPHEMERIS_TYPE = 0
CLASSIFICATION_TYPE = U
NORAD_CAT_ID   = 67997
ELEMENT_SET_NO = 999
REV_AT_EPOCH   = 499
BSTAR          = -.22841679E-2
MEAN_MOTION_DOT = -.13238E-2
MEAN_MOTION_DDOT = 0

CCSDS_OMM_VERS = 2.0
CREATION_DATE  = 
ORIGINATOR     = 

OBJECT_NAME    = STARLINK-36988
OBJECT_ID      = 2026-039N
CENTER_NAME    = EARTH
REF_FRAME      = TEME
TIME_SYSTEM    = UTC
MEAN_ELEMENT_THEORY = SGP/SGP4

EPOCH          = 2026-03-22T20:00:01.999872
MEAN_MOTION    = 15.50640381
ECCENTRICITY   = .00013073
INCLINATION    = 42.9998
RA_OF_ASC_NODE = 335.7468
ARG_OF_PERICENTER = 261.2636
MEAN_ANOMALY   = 23.1334

EPHEMERIS_TYPE = 0
CLASSIFICATION_TYPE = U
NORAD_CAT_ID   = 67998
ELEMENT_SET_NO = 999
REV_AT_EPOCH   = 499
BSTAR          = -.22632966E-2
MEAN_MOTION_DOT = -.131202E-2
MEAN_MOTION_DDOT = 0

